[Satellite]
VERSION=1.1
NAME=GSAT0207 (PRN E07)
NICKNAME=GSAT0207 (PRN E07)
TLE1=1 41859U 16069A   20157.12363321  .00000066  00000-0  00000+0 0  9996
TLE2=2 41859  54.6497 162.1833 0006143 292.5671  67.3886  1.70473324 22074
STATUS=0
